{
"type": "FeatureCollection",
"name": "SRR_SARWorld",
"crs": { "type": "name", "properties": { "name": "urn:ogc:def:crs:OGC:1.3:CRS84" } },
"features": [
{ "type": "Feature", "properties": { "id": null, "Name": "NORFOLK SRR", "description": "NORFOLK SRR" }, "geometry": { "type": "LineString", "coordinates": [ [ -66.968495779130166, 44.758737015799959, 0.0 ], [ -67.00774398933315, 41.855424224746869, 0.0 ], [ -62.99846801825025, 42.826735398400722, 0.0 ], [ -52.99822303432164, 44.997838662599378, 0.0 ], [ -39.999573424636182, 44.996863457466233, 0.0 ], [ -40.00032721645227, 17.996326049849799, 0.0 ], [ -48.01027063239021, 17.97480635146967, 0.0 ], [ -47.988382895090972, 18.952197213132621, 0.0 ], [ -53.50446201737703, 19.115888117619249, 0.0 ], [ -69.319524318057404, 28.996667320718331, 0.0 ], [ -72.995102050967844, 30.91591216048403, 0.0 ], [ -78.56733827232425, 33.852400657659231, 0.0 ] ] } },
{ "type": "Feature", "properties": { "id": null, "Name": "New Zealand SRR", "description": "New Zealand SRR" }, "geometry": { "type": "LineString", "coordinates": [ [ 162.942402440474808, -26.207229544058571, 0.0 ], [ 170.325192973643993, -26.122593743770992, 0.0 ], [ -179.975068378707704, -25.010930672173789, 0.0 ], [ -171.060245467103186, -5.035577117745168, 0.0 ], [ -157.030376593528899, -5.052423165681065, 0.0 ], [ -156.964832062740896, -30.076797318361571, 0.0 ], [ -42.081445043170071, -89.890618212681943, 0.0 ], [ 162.892906433709413, -26.227132119909019, 0.0 ] ] } },
{ "type": "Feature", "properties": { "id": null, "Name": "JRCC CURAÇAO", "description": "JRCC CURAÇAO" }, "geometry": { "type": "LineString", "coordinates": [ [ -70.50135552697823, 12.49512722725469, 0.0 ], [ -67.96649901929203, 11.39935134741043, 0.0 ], [ -67.066642290317503, 15.683308252698779, 0.0 ], [ -67.999908842981185, 15.99982606639799, 0.0 ], [ -71.666208575563957, 15.998907560603421, 0.0 ], [ -71.666786099264613, 16.999916879479361, 0.0 ], [ -73.00007038531993, 16.999845148506441, 0.0 ], [ -74.000002464638101, 15.99980498006717, 0.0 ], [ -73.999958456191933, 14.333104887127631, 0.0 ], [ -71.416682958644145, 12.499988919421151, 0.0 ], [ -70.500023640544413, 12.49979954131082, 0.0 ] ] } },
{ "type": "Feature", "properties": { "id": null, "Name": "MRCC PALERMO", "description": "MRCC PALERMO" }, "geometry": { "type": "LineString", "coordinates": [ [ 14.173872118667241, 38.018826993655232, 0.0 ], [ 14.101782839680061, 38.177428880458287, 0.0 ], [ 14.1002668645146, 39.2005232282973, 0.0 ], [ 11.65075783783402, 39.843920792633163, 0.0 ], [ 10.350491011100891, 37.997096749277617, 0.0 ], [ 11.499140714848711, 37.495377067583128, 0.0 ], [ 11.500838797389861, 36.493121921457693, 0.0 ], [ 12.23730146817061, 35.2464213687701, 0.0 ], [ 12.667838130243201, 35.249837579385257, 0.0 ], [ 14.135546650296281, 36.495542355530247, 0.0 ], [ 14.13417018386016, 36.662080485639621, 0.0 ], [ 14.3339046971643, 37.000402924713427, 0.0 ] ] } },
{ "type": "Feature", "properties": { "id": null, "Name": "MRCC REYkJAVIK", "description": "MRCC REYKJAVIK" }, "geometry": { "type": "LineString", "coordinates": [ [ -20.051930089789, 72.98948854843367, 0.0 ], [ 0.10068440346167, 72.971391566745339, 0.0 ], [ 0.139634734956033, 63.457908759871167, 0.0 ], [ -0.877771532035453, 63.448659376492131, 0.0 ], [ -3.978354898021963, 60.979792710689757, 0.0 ], [ -29.96617410214283, 60.976161500436561, 0.0 ], [ -42.997156534249868, 58.484231038370233, 0.0 ], [ -38.97632849551465, 63.511530507447588, 0.0 ], [ -19.99465752115999, 69.968582157711765, 0.0 ], [ -19.990685798353141, 72.80787215555246, 0.0 ] ] } },
{ "type": "Feature", "properties": { "id": null, "Name": "MRCC ALGER", "description": "MRCC ALGER" }, "geometry": { "type": "LineString", "coordinates": [ [ 8.639389079109392, 36.937423047210942, 0.0 ], [ 8.166004906387698, 38.528397531223639, 0.0 ], [ 7.732894968934787, 38.532083565762079, 0.0 ], [ 7.732010045143952, 38.996289362454164, 0.0 ], [ 4.66773501749941, 39.000348822653017, 0.0 ], [ 3.752718008952698, 38.332534917648132, 0.0 ], [ 1.003378219325697, 37.162115050356157, 0.0 ], [ -2.101042962725472, 35.830038127144533, 0.0 ], [ -2.208968338994708, 35.091142294630259, 0.0 ] ] } },
{ "type": "Feature", "properties": { "id": null, "Name": "MRCC HOLYHEAD", "description": "MRCC HOLYHEAD" }, "geometry": { "type": "LineString", "coordinates": [ [ -3.343847550872197, 53.34878151505535, 0.0 ], [ -3.806323771919197, 53.531327484115799, 0.0 ], [ -5.263443075193706, 53.649893721156729, 0.0 ], [ -5.466926317516368, 52.69924156158887, 0.0 ], [ -4.074208171344012, 52.696965586434928, 0.0 ] ] } },
{ "type": "Feature", "properties": { "id": null, "Name": "MRCC LISBOA", "description": "MRCC LISBOA" }, "geometry": { "type": "LineString", "coordinates": [ [ -13.00323048667433, 42.987428236244376, 0.0 ], [ -14.98944112392231, 41.98953056100752, 0.0 ], [ -14.999805410323971, 36.487529445030972, 0.0 ], [ -17.79583444614417, 34.153050769520689, 0.0 ], [ -18.148968814478849, 33.657936712106988, 0.0 ], [ -18.306118360427561, 32.872779704740047, 0.0 ], [ -18.129836444148172, 32.205778068421317, 0.0 ], [ -17.433069368085611, 31.631041186901729, 0.0 ], [ -15.144844841226771, 31.57773696386214, 0.0 ], [ -14.639128132573431, 32.23660180682355, 0.0 ], [ -12.001751174689989, 35.963250003869867, 0.0 ], [ -7.385838517148486, 35.836250820199098, 0.0 ] ] } },
{ "type": "Feature", "properties": { "id": null, "Name": "MRSC FORTH", "description": "MRSC FORTH" }, "geometry": { "type": "LineString", "coordinates": [ [ 2.398604803889981, 57.09940847807416, 0.0 ], [ 3.231991845590629, 56.099548389253357, 0.0 ], [ -2.032674270798495, 55.799648115568608, 0.0 ] ] } },
{ "type": "Feature", "properties": { "id": null, "Name": "MRCC FALMOUTH", "description": "MRCC FALMOUTH" }, "geometry": { "type": "LineString", "coordinates": [ [ -4.804713024738803, 50.201194495304797, 0.0 ], [ -4.536062730049125, 49.430467570305829, 0.0 ], [ -7.992929565528286, 48.821860340364772, 0.0 ], [ -29.98617613944592, 44.964980057886237, 0.0 ], [ -30.066112119300271, 57.630644101291942, 0.0 ], [ -12.22547819708053, 54.482844539634783, 0.0 ], [ -15.00039911610668, 53.97426378707285, 0.0 ], [ -14.9959369156922, 50.981422470018281, 0.0 ], [ -8.018721182261146, 51.000753218757787, 0.0 ], [ -4.560779706774738, 50.921263948076273, 0.0 ] ] } },
{ "type": "Feature", "properties": { "id": null, "Name": "MRCC DOVER", "description": "MRCC DOVER" }, "geometry": { "type": "LineString", "coordinates": [ [ 1.233673210978679, 51.383235513601761, 0.0 ], [ 2.130780013325875, 51.515885051565263, 0.0 ], [ 2.046376799613697, 51.333629356931603, 0.0 ], [ 1.956997799043691, 51.237544901858179, 0.0 ], [ 1.89714885151254, 51.197244304019932, 0.0 ], [ 1.726491336854892, 51.097616907944662, 0.0 ], [ 1.545975760359568, 51.03627367264815, 0.0 ], [ 1.356733233414275, 50.947801729359732, 0.0 ], [ 1.276491504484966, 50.814083393271339, 0.0 ], [ 0.963205207600765, 50.545584967198188, 0.0 ], [ 0.00708064788769, 50.399671030378798, 0.0 ], [ 0.198938506454382, 50.730148363239721, 0.0 ] ] } },
{ "type": "Feature", "properties": { "id": null, "Name": "North Atlantic area for which MRCC CLYDE is responsible", "description": "North Atlantic area for which MRCC CLYDE is responsible" }, "geometry": { "type": "LineString", "coordinates": [ [ -30.036878441277992, 60.978781520324972, 0.0 ], [ -13.02725087264926, 60.995803892806322, 0.0 ], [ -13.00148109823799, 56.677137067542233, 0.0 ], [ -30.01298632003207, 56.668685691509403, 0.0 ], [ -29.99320357046275, 60.996257273238761, 0.0 ] ] } },
{ "type": "Feature", "properties": { "id": null, "Name": "MRCC CLYDE", "description": "MRCC CLYDE" }, "geometry": { "type": "LineString", "coordinates": [ [ -4.900378714487161, 54.63323055823318, 0.0 ], [ -4.999596251521027, 54.499320078072863, 0.0 ], [ -6.084131420747369, 55.366773211926592, 0.0 ], [ -6.783579610639094, 55.466597566083742, 0.0 ], [ -7.36641387331693, 55.998979582948508, 0.0 ], [ -7.649639916979652, 56.76685321735664, 0.0 ] ] } },
{ "type": "Feature", "properties": { "id": null, "Name": "MRCC BRIXHAM", "description": "MRCC BRIXHAM" }, "geometry": { "type": "LineString", "coordinates": [ [ -3.435243215478594, 50.631548212949113, 0.0 ], [ -2.909972180459903, 49.897394001711497, 0.0 ], [ -4.521370587814005, 49.382621780573402, 0.0 ], [ -4.802019762342114, 50.216632810177828, 0.0 ] ] } },
{ "type": "Feature", "properties": { "id": null, "Name": "MRCC ABERDEEN", "description": "MRCC ABERDEEN" }, "geometry": { "type": "LineString", "coordinates": [ [ -5.000615766917434, 58.616784970237433, 0.0 ], [ -5.000139484487136, 58.866597342176803, 0.0 ], [ 1.566494561726401, 58.733170312734387, 0.0 ], [ 2.950225765533888, 58.733303681994762, 0.0 ], [ 2.399805650016205, 57.098805850779357, 0.0 ], [ -2.27077289620064, 56.830704985122239, 0.0 ] ] } },
{ "type": "Feature", "properties": { "id": null, "Name": "MRCC CAGLIARI", "description": "MRCC CAGLIARI" }, "geometry": { "type": "LineString", "coordinates": [ [ 11.64864454012209, 39.848091340509157, 0.0 ], [ 9.08952273048493, 38.531117646535947, 0.0 ], [ 7.737400222300693, 38.532605933907767, 0.0 ], [ 7.737202135756746, 41.328951216226059, 0.0 ], [ 9.74552786542823, 41.330699693690548, 0.0 ], [ 9.750044494701427, 42.080627284248308, 0.0 ], [ 10.333176265527801, 42.084407570673562, 0.0 ], [ 10.49957310739646, 41.833307485459429, 0.0 ] ] } },
{ "type": "Feature", "properties": { "id": null, "Name": "CCS FINISTERRE", "description": "MRCC FINISTERRE" }, "geometry": { "type": "LineString", "coordinates": [ [ -8.871977980517556, 41.868540197340643, 0.0 ], [ -9.999922313025536, 41.999872913847689, 0.0 ], [ -12.9999328645735, 42.999879054254322, 0.0 ], [ -12.999910337358701, 44.999894984565898, 0.0 ], [ -8.000317852010198, 44.998575426679359, 0.0 ], [ -6.498967918301175, 44.747849248964293, 0.0 ], [ -6.496897625350274, 43.557694860073433, 0.0 ] ] } },
{ "type": "Feature", "properties": { "id": null, "Name": "Limite de facto segun ultima reunion Jefes de Centro", "description": "Debido a los conflictos surgidos entre CCS FINISTERRE y CCS GIJON, en la ultima reunion de Jefes de Centro (2008) se decidio que el limite estaba en el Eo" }, "geometry": { "type": "LineString", "coordinates": [ [ -7.029057854334497, 43.548454801771449, 0.0 ], [ -7.066367778482488, 44.841512763557517, 0.0 ] ] } },
{ "type": "Feature", "properties": { "id": null, "Name": "CCS GIJON", "description": null }, "geometry": { "type": "LineString", "coordinates": [ [ -4.159762172887781, 44.356224152948201, 0.0 ], [ -4.1807870440242, 43.404261720418198, 0.0 ] ] } },
{ "type": "Feature", "properties": { "id": null, "Name": "CCS TARIFA", "description": null }, "geometry": { "type": "LineString", "coordinates": [ [ -7.397043679717941, 37.17310556445338, 0.0 ], [ -7.383286816298352, 35.833303543908421, 0.0 ], [ -3.783759767399687, 35.832669319848883, 0.0 ] ] } },
{ "type": "Feature", "properties": { "id": null, "Name": "CCS BARCELONA", "description": null }, "geometry": { "type": "LineString", "coordinates": [ [ 3.173552440068264, 42.431349300695587, 0.0 ], [ 4.674370482118121, 41.996013863739783, 0.0 ], [ 4.668288599751946, 41.327247179400871, 0.0 ], [ 2.002423850711722, 40.080124130388377, 0.0 ], [ 0.516169645579581, 40.522019419704328, 0.0 ] ] } },
{ "type": "Feature", "properties": { "id": null, "Name": "CCS VALENCIA", "description": null }, "geometry": { "type": "LineString", "coordinates": [ [ 2.002974145615667, 40.077334512242473, 0.0 ], [ 1.005306704785937, 39.745478472838663, 0.0 ], [ 1.004471907329204, 37.163455030169139, 0.0 ], [ -0.762365411567572, 37.845758611249337, 0.0 ] ] } },
{ "type": "Feature", "properties": { "id": null, "Name": "CCS PALMA", "description": null }, "geometry": { "type": "LineString", "coordinates": [ [ 4.668295979530427, 41.329580837035039, 0.0 ], [ 4.666747978092772, 38.999844807547397, 0.0 ], [ 3.750022417133097, 38.333318825660832, 0.0 ], [ 1.003787583683931, 37.164504515186849, 0.0 ] ] } },
{ "type": "Feature", "properties": { "id": null, "Name": "CCS ALMERIA", "description": null }, "geometry": { "type": "LineString", "coordinates": [ [ -3.839310020634571, 36.74647735611989, 0.0 ], [ -3.783325420135938, 35.833293360797967, 0.0 ], [ -2.099345258494637, 35.832787283290322, 0.0 ], [ 1.000284095273088, 37.166396574847901, 0.0 ] ] } },
{ "type": "Feature", "properties": { "id": null, "Name": "MRCC GENOA", "description": "MRCC GENOA" }, "geometry": { "type": "LineString", "coordinates": [ [ 7.534435492780304, 43.78215230609257, 0.0 ], [ 7.703039666844163, 43.497419658095133, 0.0 ], [ 9.498597697847117, 43.498922957632772, 0.0 ], [ 9.867537443273505, 43.882303297872987, 0.0 ], [ 10.01989398131566, 44.042993900196159, 0.0 ] ] } },
{ "type": "Feature", "properties": { "id": null, "Name": "MRCC VENEZIA", "description": "MRCC VENEZIA" }, "geometry": { "type": "LineString", "coordinates": [ [ 13.10253915966814, 45.641701634791971, 0.0 ], [ 13.20094893108671, 45.432461981982577, 0.0 ], [ 13.10049727171061, 45.431833883771922, 0.0 ], [ 13.00048110578733, 45.298930595650972, 0.0 ], [ 12.999768184103459, 44.816299746703422, 0.0 ], [ 13.11686652385095, 44.783245370649389, 0.0 ] ] } },
{ "type": "Feature", "properties": { "id": null, "Name": "MRCC RAVENNA", "description": "MRCC RAVENNA" }, "geometry": { "type": "LineString", "coordinates": [ [ 12.40219171656779, 44.791029805129227, 0.0 ], [ 12.66717825066026, 44.699671759984838, 0.0 ], [ 13.11787026137533, 44.782296494967127, 0.0 ], [ 13.36656314623737, 44.532891236571167, 0.0 ], [ 13.6306243428389, 44.350248523800047, 0.0 ] ] } },
{ "type": "Feature", "properties": { "id": null, "Name": "MRCC ANCONA", "description": "MRCC ANCONA" }, "geometry": { "type": "LineString", "coordinates": [ [ 12.7424783321314, 43.964233089207532, 0.0 ], [ 12.8358061407245, 44.115538456832432, 0.0 ], [ 13.633365688519261, 44.349101182696998, 0.0 ], [ 14.50036496835758, 43.466556061055712, 0.0 ], [ 15.57639623686028, 42.831715706658997, 0.0 ] ] } },
{ "type": "Feature", "properties": { "id": null, "Name": "MRCC REGGIO CALABRIA", "description": "MRCC REGGIO CALABRIA" }, "geometry": { "type": "LineString", "coordinates": [ [ 14.817399370139199, 39.012971225829787, 0.0 ], [ 15.58558313658931, 39.01273314275727, 0.0 ], [ 15.520297918980379, 38.665568990188582, 0.0 ], [ 15.47996559913749, 38.645990743441928, 0.0 ], [ 15.6653785784421, 38.265238936288704, 0.0 ], [ 15.63259055167355, 38.231893762066512, 0.0 ], [ 15.54908165281809, 37.998015489895579, 0.0 ], [ 15.550558536229889, 37.747991553800183, 0.0 ], [ 19.000807045412628, 35.997104014662384, 0.0 ], [ 19.000321817628429, 38.995110947067232, 0.0 ], [ 17.865757323109388, 39.411894672383283, 0.0 ], [ 17.766417414997949, 39.597591484132643, 0.0 ], [ 17.348513360151689, 39.77833414157292, 0.0 ], [ 16.638270969207209, 40.115153006661792, 0.0 ] ] } },
{ "type": "Feature", "properties": { "id": null, "Name": "MRCC BARI", "description": "MRCC BARI" }, "geometry": { "type": "LineString", "coordinates": [ [ 15.137032417197959, 41.921899927937133, 0.0 ], [ 15.57902494490644, 42.82581808943403, 0.0 ], [ 16.483998421298111, 42.295168891968387, 0.0 ], [ 18.914745253250629, 41.111923554326431, 0.0 ], [ 19.00195830026631, 40.748222849808798, 0.0 ], [ 19.003827553092421, 38.996308149667684, 0.0 ] ] } },
{ "type": "Feature", "properties": { "id": null, "Name": "MRCC NAPOLI", "description": "MRCC NAPOLI" }, "geometry": { "type": "LineString", "coordinates": [ [ 11.64981660562813, 39.84839296994074, 0.0 ], [ 14.818799973367391, 39.012544965336353, 0.0 ], [ 15.49953730367524, 39.832187486050188, 0.0 ], [ 15.64419434815958, 40.040903797828662, 0.0 ] ] } },
{ "type": "Feature", "properties": { "id": null, "Name": "MRCC ROME", "description": "MRCC ROME" }, "geometry": { "type": "LineString", "coordinates": [ [ 11.441424887498099, 42.380061029787697, 0.0 ], [ 10.50092164932642, 41.831562299781083, 0.0 ], [ 11.64878102686178, 39.849734027031758, 0.0 ], [ 13.53488331049199, 40.548676137889849, 0.0 ], [ 13.76402750357545, 41.22070951230301, 0.0 ] ] } },
{ "type": "Feature", "properties": { "id": null, "Name": "MRCC GRIS NEZ", "description": null }, "geometry": { "type": "LineString", "coordinates": [ [ 0.162956500437304, 49.685341177702107, 0.0 ], [ -0.003929766780985, 50.407742907808817, 0.0 ], [ 0.963585762684289, 50.546855182388732, 0.0 ], [ 1.275754334177123, 50.814105744752041, 0.0 ], [ 1.356883643838216, 50.947963935272412, 0.0 ], [ 1.547554013947874, 51.037224954845463, 0.0 ], [ 1.72608039758417, 51.098491806737528, 0.0 ], [ 1.89648519182623, 51.197342322973761, 0.0 ], [ 1.955271109962879, 51.238064094129342, 0.0 ], [ 2.04434561436824, 51.334420370534261, 0.0 ], [ 2.127911303990942, 51.50185515650346, 0.0 ], [ 2.183061071405916, 51.533432789530387, 0.0 ], [ 2.250495456499678, 51.532754064858572, 0.0 ], [ 2.391483521343545, 51.26753559567203, 0.0 ], [ 2.542318121035478, 51.093756222460058, 0.0 ] ] } },
{ "type": "Feature", "properties": { "id": null, "Name": "MRCC LA GARDE", "description": null }, "geometry": { "type": "LineString", "coordinates": [ [ -1.583902234532175, 48.623548432482252, 0.0 ], [ -1.819782074709153, 48.812912406556322, 0.0 ], [ -2.329458514852718, 48.878829177977067, 0.0 ], [ -4.111511651068312, 49.4986829680143, 0.0 ], [ -2.894846612856725, 49.902977167083542, 0.0 ], [ -2.483509187290494, 49.980295031811927, 0.0 ], [ -1.804388476896307, 50.096090103084542, 0.0 ], [ -1.201627557726468, 50.199950273412377, 0.0 ], [ -0.600813416357212, 50.301369066131272, 0.0 ], [ 0.00624996261179, 50.404854311679131, 0.0 ], [ 0.170570042569523, 49.683104829983719, 0.0 ] ] } },
{ "type": "Feature", "properties": { "id": null, "Name": "mrcc fort de france", "description": null }, "geometry": { "type": "LineString", "coordinates": [ [ -51.648152132204942, 4.45373112925813, 0.0 ], [ -48.03162013924603, 8.568059813692836, 0.0 ], [ -48.002031523276329, 9.950198280223118, 0.0 ], [ -39.952899374149503, 9.981744157281504, 0.0 ], [ -36.006549945714909, 9.968416255178916, 0.0 ], [ -37.470245876427398, 13.46559134449333, 0.0 ], [ -37.51122173676282, 16.975683148604482, 0.0 ], [ -37.481336827674482, 17.970333510907938, 0.0 ], [ -40.005970294875191, 17.984207100482131, 0.0 ], [ -48.004342543671072, 17.98373916289345, 0.0 ], [ -47.986458933605732, 18.983644354214459, 0.0 ], [ -63.508696097376927, 18.998002631857052, 0.0 ], [ -63.513495634259087, 16.985243457929791, 0.0 ], [ -62.340535804078982, 15.97147604124066, 0.0 ], [ -62.360707236958248, 13.54720081945114, 0.0 ], [ -60.500347769540213, 13.479762851407919, 0.0 ], [ -56.809038760867452, 14.15048024725332, 0.0 ], [ -56.793774589323043, 11.265635040726281, 0.0 ], [ -54.014444796145767, 11.26651297709572, 0.0 ], [ -54.005777760850307, 9.987440588342325, 0.0 ], [ -53.989740683318743, 5.780192663771005, 0.0 ] ] } },
{ "type": "Feature", "properties": { "id": null, "Name": "CROSS ETEL", "description": null }, "geometry": { "type": "LineString", "coordinates": [ [ -1.793918264994247, 43.373010947112562, 0.0 ], [ -4.000891225090257, 44.325488531332027, 0.0 ], [ -8.003432645893142, 44.990529609280408, 0.0 ], [ -8.013332269080337, 47.786218820162439, 0.0 ], [ -4.391447109337676, 47.790620000145289, 0.0 ] ] } },
{ "type": "Feature", "properties": { "id": null, "Name": "MRCC CORSEN", "description": null }, "geometry": { "type": "LineString", "coordinates": [ [ -4.384378370047003, 47.794772576878671, 0.0 ], [ -7.998244837235235, 47.796274142121568, 0.0 ], [ -7.997381579546472, 48.036797219925752, 0.0 ], [ -7.993813478959041, 48.827316870646193, 0.0 ], [ -6.923047787861919, 49.001401200975323, 0.0 ], [ -4.104775248801516, 49.49532349073813, 0.0 ], [ -2.337140542351236, 48.877100894129889, 0.0 ], [ -1.818093722995982, 48.814631039158151, 0.0 ], [ -1.582772350087126, 48.617516358773642, 0.0 ] ] } },
{ "type": "Feature", "properties": { "id": null, "Name": "canary islands region spain", "description": null }, "geometry": { "type": "LineString", "coordinates": [ [ -17.075506432087689, 20.772139108125401, 0.0 ], [ -18.98813631834722, 18.988912143272909, 0.0 ], [ -25.000190082360039, 24.989926375952852, 0.0 ], [ -24.994575803041428, 29.997102613881669, 0.0 ], [ -19.996830841532532, 29.992379710407089, 0.0 ], [ -17.40660050471547, 31.639654735675929, 0.0 ], [ -15.153932914692829, 31.56808439983682, 0.0 ], [ -12.49847620067159, 29.992691379923372, 0.0 ], [ -13.167820040413149, 27.665746293615499, 0.0 ] ] } },
{ "type": "Feature", "properties": { "id": null, "Name": "MRCC PAPEETE", "description": "MRCC PAPEETE" }, "geometry": { "type": "LineString", "coordinates": [ [ -120.020659443248107, -30.02304083228837, 0.0 ], [ -156.990260294566099, -30.074052437480269, 0.0 ], [ -157.015300438016112, -5.009626453402474, 0.0 ], [ -120.003279551103503, -5.033970847405906, 0.0 ], [ -120.020109570271899, -30.01647319262473, 0.0 ] ] } },
{ "type": "Feature", "properties": { "id": null, "Name": "MRCC CAYENNE", "description": "MRCC CAYENNE" }, "geometry": { "type": "LineString", "coordinates": [ [ -53.99417576864564, 5.781735117262476, 0.0 ], [ -54.00035012114769, 9.99738340810859, 0.0 ], [ -48.002773521860739, 9.949989287110075, 0.0 ], [ -48.031801263768038, 8.56804420063577, 0.0 ], [ -51.633852231199391, 4.470976406088658, 0.0 ] ] } },
{ "type": "Feature", "properties": { "id": null, "Name": "MRCC NOUMEA", "description": null }, "geometry": { "type": "LineString", "coordinates": [ [ 156.985291402877294, -14.011101209851059, 0.0 ], [ 163.025936548902308, -14.023136371882821, 0.0 ], [ 165.17141349640309, -12.52703722530808, 0.0 ], [ 171.183318490389809, -12.503354833213571, 0.0 ], [ 173.991148114064003, -20.988473417866139, 0.0 ], [ 173.987131895273706, -25.999881762001589, 0.0 ], [ 156.973188197421109, -26.00960298701575, 0.0 ], [ 156.985340753938914, -14.01402149809533, 0.0 ] ] } },
{ "type": "Feature", "properties": { "id": null, "Name": "MRCC REUNION", "description": null }, "geometry": { "type": "LineString", "coordinates": [ [ 52.022649940538088, -19.02300414511339, 0.0 ], [ 55.018361963362587, -19.015516168698952, 0.0 ], [ 60.0027390859888, -24.51985735516142, 0.0 ], [ 60.041435217918959, -35.016077084417098, 0.0 ], [ 75.012162487146554, -35.0270387784417, 0.0 ], [ 75.032312243266404, -50.02702859823313, 0.0 ], [ 45.028037951850457, -50.02454854026179, 0.0 ], [ 45.019117240532687, -30.021604256935959, 0.0 ], [ 52.037464574130752, -30.017397736513139, 0.0 ], [ 52.022616659399773, -19.028845870790839, 0.0 ] ] } },
{ "type": "Feature", "properties": { "id": null, "Name": "MRCC CAGLIARI", "description": "MRCC CAGLIARI" }, "geometry": { "type": "LineString", "coordinates": [ [ 11.64864454012209, 39.848091340509157, 0.0 ], [ 9.08952273048493, 38.531117646535947, 0.0 ], [ 7.737400222300693, 38.532605933907767, 0.0 ], [ 7.737202135756746, 41.328951216226059, 0.0 ], [ 9.74552786542823, 41.330699693690548, 0.0 ], [ 9.750044494701427, 42.080627284248308, 0.0 ], [ 10.333176265527801, 42.084407570673562, 0.0 ], [ 10.49957310739646, 41.833307485459429, 0.0 ] ] } },
{ "type": "Feature", "properties": { "id": null, "Name": "LITHUANIA SSR", "description": "MRCC KLAIPEDA" }, "geometry": { "type": "LineString", "coordinates": [ [ 20.950125717315789, 55.283117821465147, 0.0 ], [ 18.027929854569731, 56.090514131368181, 0.0 ], [ 18.50329866841038, 56.340380390695827, 0.0 ], [ 21.057654776825999, 56.06819416171777, 0.0 ] ] } },
{ "type": "Feature", "properties": { "id": null, "Name": "NETHERLANDS SSR", "description": "JRCC DEN HELDER" }, "geometry": { "type": "LineString", "coordinates": [ [ 3.364166822976444, 51.367604908131042, 0.0 ], [ 2.532882474993102, 51.366473415949812, 0.0 ], [ 3.366052757736243, 55.766499490642921, 0.0 ], [ 6.423581032299254, 53.59697003256521, 0.0 ] ] } },
{ "type": "Feature", "properties": { "id": null, "Name": "GREECE SSR", "description": "GREECE SSR" }, "geometry": { "type": "LineString", "coordinates": [ [ 18.996000383742171, 36.500763680342587, 0.0 ], [ 24.166209304140342, 33.999903699316022, 0.0 ], [ 27.16670405567082, 34.000082936163977, 0.0 ], [ 30.0003508793145, 33.499210613154212, 0.0 ], [ 29.999398853225479, 36.084156207047478, 0.0 ] ] } },
{ "type": "Feature", "properties": { "id": null, "Name": "FINLAND SSR", "description": "FINLAND SSR" }, "geometry": { "type": "LineString", "coordinates": [ [ 24.137386851458501, 65.529338854502484, 0.0 ], [ 21.49788790473006, 63.616562067798156, 0.0 ], [ 20.666737511329391, 63.475489434733809, 0.0 ], [ 20.16732838905509, 63.166922691539177, 0.0 ], [ 19.500312577286319, 61.6662405900259, 0.0 ], [ 19.085187680633311, 60.191813689967603, 0.0 ], [ 19.985311430774701, 59.564085432107397, 0.0 ], [ 20.999569529429031, 58.999402307290097, 0.0 ], [ 24.85106216311166, 59.883563572331269, 0.0 ], [ 25.33295198100538, 59.907785561348028, 0.0 ], [ 25.867307253894939, 59.883569135884791, 0.0 ], [ 26.549264027516639, 60.133228705679912, 0.0 ], [ 27.299840649391459, 60.205314063007727, 0.0 ] ] } },
{ "type": "Feature", "properties": { "id": null, "Name": "MRCC VARNA", "description": "MRCC VARNA" }, "geometry": { "type": "LineString", "coordinates": [ [ 28.580427066994659, 43.738623355975029, 0.0 ], [ 30.749547409380821, 43.799596037599272, 0.0 ], [ 31.13341364776679, 43.738141606379102, 0.0 ], [ 28.99936953327321, 42.115715898771199, 0.0 ], [ 28.322791499205739, 41.997489483579777, 0.0 ], [ 28.037770931944412, 41.982153686123731, 0.0 ] ] } },
{ "type": "Feature", "properties": { "id": null, "Name": "RCC SOUTH", "description": "RCC SOUTH-Rio Grande" }, "geometry": { "type": "LineString", "coordinates": [ [ -53.376090726004627, -33.743026929656537, 0.0 ], [ -53.00058448329154, -35.000105695613179, 0.0 ], [ -50.166779886157443, -35.83347809820863, 0.0 ], [ -48.449845024502658, -33.999817131915897, 0.0 ], [ -36.035875043203042, -34.001269195163609, 0.0 ] ] } },
{ "type": "Feature", "properties": { "id": null, "Name": "RCC SOUTHEAST", "description": "RCC SOUTHEAST- Rio de Janeiro" }, "geometry": { "type": "LineString", "coordinates": [ [ -48.016135858605878, -25.231028083570099, 0.0 ], [ -36.034682932449989, -33.999510133964421, 0.0 ], [ -9.998592421108171, -34.00263124786953, 0.0 ], [ -9.972134354929395, -27.76227937857945, 0.0 ] ] } },
{ "type": "Feature", "properties": { "id": null, "Name": "RCC EAST", "description": "RCC EAST- Salvador" }, "geometry": { "type": "LineString", "coordinates": [ [ -9.997827208486981, -19.718219010637959, 0.0 ], [ -9.999701143684717, -27.749506303319809, 0.0 ], [ -39.667862356406197, -18.34957377102122, 0.0 ] ] } },
{ "type": "Feature", "properties": { "id": null, "Name": "RCC NORTHEAST", "description": "RCC NORTHEAST-Natal" }, "geometry": { "type": "LineString", "coordinates": [ [ -36.00738786179047, 9.969729893324322, 0.0 ], [ -35.003052587126099, 7.66839804153616, 0.0 ], [ -16.004070231516369, -6.363996134287851, 0.0 ], [ -9.999164186415186, -6.368162772822966, 0.0 ], [ -9.996248896178614, -19.719294172873418, 0.0 ], [ -36.418529321194299, -10.500231368283311, 0.0 ] ] } },
{ "type": "Feature", "properties": { "id": null, "Name": "RCC NORTH", "description": "RCC NORTH- Belem" }, "geometry": { "type": "LineString", "coordinates": [ [ -41.252694227343447, -3.018502592243455, 0.0 ], [ -36.950171173819662, 9.977458375823147, 0.0 ] ] } },
{ "type": "Feature", "properties": { "id": null, "Name": "MRCC GENOA", "description": "MRCC GENOA" }, "geometry": { "type": "LineString", "coordinates": [ [ 7.534435492780304, 43.78215230609257, 0.0 ], [ 7.703039666844163, 43.497419658095133, 0.0 ], [ 9.498597697847117, 43.498922957632772, 0.0 ], [ 9.867537443273505, 43.882303297872987, 0.0 ], [ 10.01989398131566, 44.042993900196159, 0.0 ] ] } },
{ "type": "Feature", "properties": { "id": null, "Name": "MRCC VENEZIA", "description": "MRCC VENEZIA" }, "geometry": { "type": "LineString", "coordinates": [ [ 13.10253915966814, 45.641701634791971, 0.0 ], [ 13.20094893108671, 45.432461981982577, 0.0 ], [ 13.10049727171061, 45.431833883771922, 0.0 ], [ 13.00048110578733, 45.298930595650972, 0.0 ], [ 12.999768184103459, 44.816299746703422, 0.0 ], [ 13.11686652385095, 44.783245370649389, 0.0 ] ] } },
{ "type": "Feature", "properties": { "id": null, "Name": "MRCC RAVENNA", "description": "MRCC RAVENNA" }, "geometry": { "type": "LineString", "coordinates": [ [ 12.40219171656779, 44.791029805129227, 0.0 ], [ 12.66717825066026, 44.699671759984838, 0.0 ], [ 13.11787026137533, 44.782296494967127, 0.0 ], [ 13.36656314623737, 44.532891236571167, 0.0 ], [ 13.6306243428389, 44.350248523800047, 0.0 ] ] } },
{ "type": "Feature", "properties": { "id": null, "Name": "MRCC ANCONA", "description": "MRCC ANCONA" }, "geometry": { "type": "LineString", "coordinates": [ [ 12.7424783321314, 43.964233089207532, 0.0 ], [ 12.8358061407245, 44.115538456832432, 0.0 ], [ 13.633365688519261, 44.349101182696998, 0.0 ], [ 14.50036496835758, 43.466556061055712, 0.0 ], [ 15.57639623686028, 42.831715706658997, 0.0 ] ] } },
{ "type": "Feature", "properties": { "id": null, "Name": "MRCC REGGIO CALABRIA", "description": "MRCC REGGIO CALABRIA" }, "geometry": { "type": "LineString", "coordinates": [ [ 14.817399370139199, 39.012971225829787, 0.0 ], [ 15.58558313658931, 39.01273314275727, 0.0 ], [ 15.520297918980379, 38.665568990188582, 0.0 ], [ 15.47996559913749, 38.645990743441928, 0.0 ], [ 15.6653785784421, 38.265238936288704, 0.0 ], [ 15.63259055167355, 38.231893762066512, 0.0 ], [ 15.54908165281809, 37.998015489895579, 0.0 ], [ 15.550558536229889, 37.747991553800183, 0.0 ], [ 19.000807045412628, 35.997104014662384, 0.0 ], [ 19.000321817628429, 38.995110947067232, 0.0 ], [ 17.865757323109388, 39.411894672383283, 0.0 ], [ 17.766417414997949, 39.597591484132643, 0.0 ], [ 17.348513360151689, 39.77833414157292, 0.0 ], [ 16.638270969207209, 40.115153006661792, 0.0 ] ] } },
{ "type": "Feature", "properties": { "id": null, "Name": "MRCC BARI", "description": "MRCC BARI" }, "geometry": { "type": "LineString", "coordinates": [ [ 15.137032417197959, 41.921899927937133, 0.0 ], [ 15.57902494490644, 42.82581808943403, 0.0 ], [ 16.483998421298111, 42.295168891968387, 0.0 ], [ 18.914745253250629, 41.111923554326431, 0.0 ], [ 19.00195830026631, 40.748222849808798, 0.0 ], [ 19.003827553092421, 38.996308149667684, 0.0 ] ] } },
{ "type": "Feature", "properties": { "id": null, "Name": "MRCC NAPOLI", "description": "MRCC NAPOLI" }, "geometry": { "type": "LineString", "coordinates": [ [ 11.64981660562813, 39.84839296994074, 0.0 ], [ 14.818799973367391, 39.012544965336353, 0.0 ], [ 15.49953730367524, 39.832187486050188, 0.0 ], [ 15.64419434815958, 40.040903797828662, 0.0 ] ] } },
{ "type": "Feature", "properties": { "id": null, "Name": "MRCC ROME", "description": "MRCC ROME" }, "geometry": { "type": "LineString", "coordinates": [ [ 11.441424887498099, 42.380061029787697, 0.0 ], [ 10.50092164932642, 41.831562299781083, 0.0 ], [ 11.64878102686178, 39.849734027031758, 0.0 ], [ 13.53488331049199, 40.548676137889849, 0.0 ], [ 13.76402750357545, 41.22070951230301, 0.0 ] ] } },
{ "type": "Feature", "properties": { "id": null, "Name": "MRCC GRIS NEZ", "description": null }, "geometry": { "type": "LineString", "coordinates": [ [ 0.162956500437304, 49.685341177702107, 0.0 ], [ -0.003929766780985, 50.407742907808817, 0.0 ], [ 0.963585762684289, 50.546855182388732, 0.0 ], [ 1.275754334177123, 50.814105744752041, 0.0 ], [ 1.356883643838216, 50.947963935272412, 0.0 ], [ 1.547554013947874, 51.037224954845463, 0.0 ], [ 1.72608039758417, 51.098491806737528, 0.0 ], [ 1.89648519182623, 51.197342322973761, 0.0 ], [ 1.955271109962879, 51.238064094129342, 0.0 ], [ 2.04434561436824, 51.334420370534261, 0.0 ], [ 2.127911303990942, 51.50185515650346, 0.0 ], [ 2.183061071405916, 51.533432789530387, 0.0 ], [ 2.250495456499678, 51.532754064858572, 0.0 ], [ 2.391483521343545, 51.26753559567203, 0.0 ], [ 2.542318121035478, 51.093756222460058, 0.0 ] ] } },
{ "type": "Feature", "properties": { "id": null, "Name": "MRCC LA GARDE", "description": null }, "geometry": { "type": "LineString", "coordinates": [ [ -1.583902234532175, 48.623548432482252, 0.0 ], [ -1.819782074709153, 48.812912406556322, 0.0 ], [ -2.329458514852718, 48.878829177977067, 0.0 ], [ -4.111511651068312, 49.4986829680143, 0.0 ], [ -2.894846612856725, 49.902977167083542, 0.0 ], [ -2.483509187290494, 49.980295031811927, 0.0 ], [ -1.804388476896307, 50.096090103084542, 0.0 ], [ -1.201627557726468, 50.199950273412377, 0.0 ], [ -0.600813416357212, 50.301369066131272, 0.0 ], [ 0.00624996261179, 50.404854311679131, 0.0 ], [ 0.170570042569523, 49.683104829983719, 0.0 ] ] } },
{ "type": "Feature", "properties": { "id": null, "Name": "mrcc fort de france", "description": null }, "geometry": { "type": "LineString", "coordinates": [ [ -51.648152132204942, 4.45373112925813, 0.0 ], [ -48.03162013924603, 8.568059813692836, 0.0 ], [ -48.002031523276329, 9.950198280223118, 0.0 ], [ -39.952899374149503, 9.981744157281504, 0.0 ], [ -36.006549945714909, 9.968416255178916, 0.0 ], [ -37.470245876427398, 13.46559134449333, 0.0 ], [ -37.51122173676282, 16.975683148604482, 0.0 ], [ -37.481336827674482, 17.970333510907938, 0.0 ], [ -40.005970294875191, 17.984207100482131, 0.0 ], [ -48.004342543671072, 17.98373916289345, 0.0 ], [ -47.986458933605732, 18.983644354214459, 0.0 ], [ -63.508696097376927, 18.998002631857052, 0.0 ], [ -63.513495634259087, 16.985243457929791, 0.0 ], [ -62.340535804078982, 15.97147604124066, 0.0 ], [ -62.360707236958248, 13.54720081945114, 0.0 ], [ -60.500347769540213, 13.479762851407919, 0.0 ], [ -56.809038760867452, 14.15048024725332, 0.0 ], [ -56.793774589323043, 11.265635040726281, 0.0 ], [ -54.014444796145767, 11.26651297709572, 0.0 ], [ -54.005777760850307, 9.987440588342325, 0.0 ], [ -53.989740683318743, 5.780192663771005, 0.0 ] ] } },
{ "type": "Feature", "properties": { "id": null, "Name": "CROSS ETEL", "description": null }, "geometry": { "type": "LineString", "coordinates": [ [ -1.793918264994247, 43.373010947112562, 0.0 ], [ -4.000891225090257, 44.325488531332027, 0.0 ], [ -8.003432645893142, 44.990529609280408, 0.0 ], [ -8.013332269080337, 47.786218820162439, 0.0 ], [ -4.391447109337676, 47.790620000145289, 0.0 ] ] } },
{ "type": "Feature", "properties": { "id": null, "Name": "MRCC CORSEN", "description": null }, "geometry": { "type": "LineString", "coordinates": [ [ -4.384378370047003, 47.794772576878671, 0.0 ], [ -7.998244837235235, 47.796274142121568, 0.0 ], [ -7.997381579546472, 48.036797219925752, 0.0 ], [ -7.993813478959041, 48.827316870646193, 0.0 ], [ -6.923047787861919, 49.001401200975323, 0.0 ], [ -4.104775248801516, 49.49532349073813, 0.0 ], [ -2.337140542351236, 48.877100894129889, 0.0 ], [ -1.818093722995982, 48.814631039158151, 0.0 ], [ -1.582772350087126, 48.617516358773642, 0.0 ] ] } },
{ "type": "Feature", "properties": { "id": null, "Name": "canary islands region spain", "description": null }, "geometry": { "type": "LineString", "coordinates": [ [ -17.075506432087689, 20.772139108125401, 0.0 ], [ -18.98813631834722, 18.988912143272909, 0.0 ], [ -25.000190082360039, 24.989926375952852, 0.0 ], [ -24.994575803041428, 29.997102613881669, 0.0 ], [ -19.996830841532532, 29.992379710407089, 0.0 ], [ -17.40660050471547, 31.639654735675929, 0.0 ], [ -15.153932914692829, 31.56808439983682, 0.0 ], [ -12.49847620067159, 29.992691379923372, 0.0 ], [ -13.167820040413149, 27.665746293615499, 0.0 ] ] } },
{ "type": "Feature", "properties": { "id": null, "Name": "MRCC PAPEETE", "description": "MRCC PAPEETE" }, "geometry": { "type": "LineString", "coordinates": [ [ -120.020659443248107, -30.02304083228837, 0.0 ], [ -156.990260294566099, -30.074052437480269, 0.0 ], [ -157.015300438016112, -5.009626453402474, 0.0 ], [ -120.003279551103503, -5.033970847405906, 0.0 ], [ -120.020109570271899, -30.01647319262473, 0.0 ] ] } },
{ "type": "Feature", "properties": { "id": null, "Name": "MRCC CAYENNE", "description": "MRCC CAYENNE" }, "geometry": { "type": "LineString", "coordinates": [ [ -53.99417576864564, 5.781735117262476, 0.0 ], [ -54.00035012114769, 9.99738340810859, 0.0 ], [ -48.002773521860739, 9.949989287110075, 0.0 ], [ -48.031801263768038, 8.56804420063577, 0.0 ], [ -51.633852231199391, 4.470976406088658, 0.0 ] ] } },
{ "type": "Feature", "properties": { "id": null, "Name": "MRCC NOUMEA", "description": null }, "geometry": { "type": "LineString", "coordinates": [ [ 156.985291402877294, -14.011101209851059, 0.0 ], [ 163.025936548902308, -14.023136371882821, 0.0 ], [ 165.17141349640309, -12.52703722530808, 0.0 ], [ 171.183318490389809, -12.503354833213571, 0.0 ], [ 173.991148114064003, -20.988473417866139, 0.0 ], [ 173.987131895273706, -25.999881762001589, 0.0 ], [ 156.973188197421109, -26.00960298701575, 0.0 ], [ 156.985340753938914, -14.01402149809533, 0.0 ] ] } },
{ "type": "Feature", "properties": { "id": null, "Name": "MRCC REUNION", "description": null }, "geometry": { "type": "LineString", "coordinates": [ [ 52.022649940538088, -19.02300414511339, 0.0 ], [ 55.018361963362587, -19.015516168698952, 0.0 ], [ 60.0027390859888, -24.51985735516142, 0.0 ], [ 60.041435217918959, -35.016077084417098, 0.0 ], [ 75.012162487146554, -35.0270387784417, 0.0 ], [ 75.032312243266404, -50.02702859823313, 0.0 ], [ 45.028037951850457, -50.02454854026179, 0.0 ], [ 45.019117240532687, -30.021604256935959, 0.0 ], [ 52.037464574130752, -30.017397736513139, 0.0 ], [ 52.022616659399773, -19.028845870790839, 0.0 ] ] } },
{ "type": "Feature", "properties": { "id": null, "Name": "MRCC LA GARDE", "description": null }, "geometry": { "type": "LineString", "coordinates": [ [ -1.583902234532175, 48.623548432482252, 0.0 ], [ -1.819782074709153, 48.812912406556322, 0.0 ], [ -2.329458514852718, 48.878829177977067, 0.0 ], [ -4.111511651068312, 49.4986829680143, 0.0 ], [ -2.894846612856725, 49.902977167083542, 0.0 ], [ -2.483509187290494, 49.980295031811927, 0.0 ], [ -1.804388476896307, 50.096090103084542, 0.0 ], [ -1.201627557726468, 50.199950273412377, 0.0 ], [ -0.600813416357212, 50.301369066131272, 0.0 ], [ 0.00624996261179, 50.404854311679131, 0.0 ], [ 0.170570042569523, 49.683104829983719, 0.0 ] ] } },
{ "type": "Feature", "properties": { "id": null, "Name": "MRCC LA GARDE", "description": null }, "geometry": { "type": "LineString", "coordinates": [ [ -1.583902234532175, 48.623548432482252, 0.0 ], [ -1.819782074709153, 48.812912406556322, 0.0 ], [ -2.329458514852718, 48.878829177977067, 0.0 ], [ -4.111511651068312, 49.4986829680143, 0.0 ], [ -2.894846612856725, 49.902977167083542, 0.0 ], [ -2.483509187290494, 49.980295031811927, 0.0 ], [ -1.804388476896307, 50.096090103084542, 0.0 ], [ -1.201627557726468, 50.199950273412377, 0.0 ], [ -0.600813416357212, 50.301369066131272, 0.0 ], [ 0.00624996261179, 50.404854311679131, 0.0 ], [ 0.170570042569523, 49.683104829983719, 0.0 ] ] } },
{ "type": "Feature", "properties": { "id": null, "Name": "MRCC GRIS NEZ", "description": null }, "geometry": { "type": "LineString", "coordinates": [ [ 0.162956500437304, 49.685341177702107, 0.0 ], [ -0.003929766780985, 50.407742907808817, 0.0 ], [ 0.963585762684289, 50.546855182388732, 0.0 ], [ 1.275754334177123, 50.814105744752041, 0.0 ], [ 1.356883643838216, 50.947963935272412, 0.0 ], [ 1.547554013947874, 51.037224954845463, 0.0 ], [ 1.72608039758417, 51.098491806737528, 0.0 ], [ 1.89648519182623, 51.197342322973761, 0.0 ], [ 1.955271109962879, 51.238064094129342, 0.0 ], [ 2.04434561436824, 51.334420370534261, 0.0 ], [ 2.127911303990942, 51.50185515650346, 0.0 ], [ 2.183061071405916, 51.533432789530387, 0.0 ], [ 2.250495456499678, 51.532754064858572, 0.0 ], [ 2.391483521343545, 51.26753559567203, 0.0 ], [ 2.542318121035478, 51.093756222460058, 0.0 ] ] } },
{ "type": "Feature", "properties": { "id": null, "Name": "mrcc fort de france", "description": null }, "geometry": { "type": "LineString", "coordinates": [ [ -51.648152132204942, 4.45373112925813, 0.0 ], [ -48.03162013924603, 8.568059813692836, 0.0 ], [ -48.002031523276329, 9.950198280223118, 0.0 ], [ -39.952899374149503, 9.981744157281504, 0.0 ], [ -36.006549945714909, 9.968416255178916, 0.0 ], [ -37.470245876427398, 13.46559134449333, 0.0 ], [ -37.51122173676282, 16.975683148604482, 0.0 ], [ -37.481336827674482, 17.970333510907938, 0.0 ], [ -40.005970294875191, 17.984207100482131, 0.0 ], [ -48.004342543671072, 17.98373916289345, 0.0 ], [ -47.986458933605732, 18.983644354214459, 0.0 ], [ -63.508696097376927, 18.998002631857052, 0.0 ], [ -63.513495634259087, 16.985243457929791, 0.0 ], [ -62.340535804078982, 15.97147604124066, 0.0 ], [ -62.360707236958248, 13.54720081945114, 0.0 ], [ -60.500347769540213, 13.479762851407919, 0.0 ], [ -56.809038760867452, 14.15048024725332, 0.0 ], [ -56.793774589323043, 11.265635040726281, 0.0 ], [ -54.014444796145767, 11.26651297709572, 0.0 ], [ -54.005777760850307, 9.987440588342325, 0.0 ], [ -53.989740683318743, 5.780192663771005, 0.0 ] ] } },
{ "type": "Feature", "properties": { "id": null, "Name": "CROSS ETEL", "description": null }, "geometry": { "type": "LineString", "coordinates": [ [ -1.793918264994247, 43.373010947112562, 0.0 ], [ -4.000891225090257, 44.325488531332027, 0.0 ], [ -8.003432645893142, 44.990529609280408, 0.0 ], [ -8.013332269080337, 47.786218820162439, 0.0 ], [ -4.391447109337676, 47.790620000145289, 0.0 ] ] } },
{ "type": "Feature", "properties": { "id": null, "Name": "MRCC CORSEN", "description": null }, "geometry": { "type": "LineString", "coordinates": [ [ -4.384378370047003, 47.794772576878671, 0.0 ], [ -7.998244837235235, 47.796274142121568, 0.0 ], [ -7.997381579546472, 48.036797219925752, 0.0 ], [ -7.993813478959041, 48.827316870646193, 0.0 ], [ -6.923047787861919, 49.001401200975323, 0.0 ], [ -4.104775248801516, 49.49532349073813, 0.0 ], [ -2.337140542351236, 48.877100894129889, 0.0 ], [ -1.818093722995982, 48.814631039158151, 0.0 ], [ -1.582772350087126, 48.617516358773642, 0.0 ] ] } },
{ "type": "Feature", "properties": { "id": null, "Name": "atlantic region spain", "description": null }, "geometry": { "type": "LineString", "coordinates": [ [ -1.765937933328218, 43.37439623453588, 0.0 ], [ -3.999356229368203, 44.323465951527901, 0.0 ], [ -7.989804024442051, 44.991953279415441, 0.0 ], [ -13.000347747353331, 44.995229451165798, 0.0 ], [ -13.00455376869958, 42.996992942596243, 0.0 ], [ -10.00230526077878, 41.99673199931857, 0.0 ], [ -8.833888077797923, 41.910228232579669, 0.0 ] ] } },
{ "type": "Feature", "properties": { "id": null, "Name": "canary islands region spain", "description": null }, "geometry": { "type": "LineString", "coordinates": [ [ -17.075506432087689, 20.772139108125401, 0.0 ], [ -18.98813631834722, 18.988912143272909, 0.0 ], [ -25.000190082360039, 24.989926375952852, 0.0 ], [ -24.994575803041428, 29.997102613881669, 0.0 ], [ -19.996830841532532, 29.992379710407089, 0.0 ], [ -17.40660050471547, 31.639654735675929, 0.0 ], [ -15.153932914692829, 31.56808439983682, 0.0 ], [ -12.49847620067159, 29.992691379923372, 0.0 ], [ -13.167820040413149, 27.665746293615499, 0.0 ] ] } },
{ "type": "Feature", "properties": { "id": null, "Name": "Madrid_Bruselas", "description": null }, "geometry": { "type": "LineString", "coordinates": [ ] } }
]
}
